STARLINK-30327          
1 57707U 23129K   26068.51769668  .00007635  00000+0  29314-3 0  9995
2 57707  42.9974  85.9834 0023030  70.8320 289.5022 15.26626807140903
STARLINK-34694          
1 66189U 25243N   26068.75552243  .00032934  00000+0  11196-2 0  9991
2 66189  53.1598 244.9627 0000760  22.0027 338.1006 15.30188707 20668
