[{"OBJECT_NAME":"STARLINK-30327","OBJECT_ID":"2023-129K","EPOCH":"2026-03-09T12:25:28.993152","MEAN_MOTION":15.26626807,"ECCENTRICITY":0.00230309,"INCLINATION":42.9974,"RA_OF_ASC_NODE":85.9834,"ARG_OF_PERICENTER":70.832,"MEAN_ANOMALY":289.5022,"EPHEMERIS_TYPE":0,"CLASSIFICATION_TYPE":"U","NORAD_CAT_ID":57707,"ELEMENT_SET_NO":999,"REV_AT_EPOCH":14090,"BSTAR":0.00029313824,"MEAN_MOTION_DOT":7.635e-5,"MEAN_MOTION_DDOT":0},{"OBJECT_NAME":"STARLINK-34694","OBJECT_ID":"2025-243N","EPOCH":"2026-03-09T18:07:57.138816","MEAN_MOTION":15.30188707,"ECCENTRICITY":7.597e-5,"INCLINATION":53.1598,"RA_OF_ASC_NODE":244.9627,"ARG_OF_PERICENTER":22.0027,"MEAN_ANOMALY":338.1006,"EPHEMERIS_TYPE":0,"CLASSIFICATION_TYPE":"U","NORAD_CAT_ID":66189,"ELEMENT_SET_NO":999,"REV_AT_EPOCH":2066,"BSTAR":0.001119558,"MEAN_MOTION_DOT":0.00032934,"MEAN_MOTION_DDOT":0}]
